ONEWEB-0063             
1 45448U 20020AA  24039.15671257 -.00000094  00000+0 -30204-3 0  9997
2 45448  87.8996 192.0115 0001334 114.6347 245.4920 13.11416967189979
ONEWEB-0019             
1 45449U 20020AB  24038.97813779 -.00000337  00000+0 -98697-3 0  9994
2 45449  87.8996 192.0443 0001360  97.1462 262.9821 13.11416689189803
ONEWEB-0094             
1 45450U 20020AC  24039.25001157  .00319448  00000+0  78281+0 0  9994
2 45450  87.9235 176.8689 0001712 104.2767 251.0432 13.18635635193053
ONEWEB-0087             
1 45451U 20020AD  24038.85801584  .00000284  00000+0  76582-3 0  9993
2 45451  87.8989 192.0491 0001783 106.8532 253.2792 13.11418493189823
ONEWEB-0082             
1 45452U 20020AE  24038.85964817  .00000314  00000+0  84901-3 0  9991
2 45452  87.8995 192.0468 0001523  97.5465 262.5836 13.11418125189912
ONEWEB-0050             
1 45453U 20020AF  24039.58334491 -.01452538  00000+0 -13478+0 0  9991
2 45453  87.9958  60.9583 0023611 164.4964 265.1732 14.97736996212335
ONEWEB-0034             
1 45454U 20020AG  24038.87913462  .00000509  00000+0  14008-2 0  9991
2 45454  87.8994 192.0608 0001618 101.7714 258.3595 13.11423000189833
ONEWEB-0060             
1 45455U 20020AH  24038.88723522  .00000185  00000+0  48493-3 0  9995
2 45455  87.8995 192.0551 0001590 106.0299 254.1004 13.11414223189798
